208P/McMillan,e,4.4023,36.1970,311.2720,4.053344,0.1207769,0.37481784,66.3657,02/26.0/2026,2000,g 12.5,4.0
# From MPC191612
209P/LINEAR,e,21.2862,62.7518,152.4743,2.957163,0.1938167,0.67416564,114.6382,02/26.0/2026,2000,g 17.0,2.0
# From MPC191612
210P/Christensen,e,10.2873,93.7965,345.9483,3.160164,0.1754445,0.83405491,16.7153,02/26.0/2026,2000,g 13.5,4.0
# From MPC191612
211P/Hill,e,18.9265,117.1001,4.3774,3.548742,0.1474322,0.34459402,182.7270,02/26.0/2026,2000,g 12.5,4.0
# From MPC191612
212P/NEAT,e,22.1490,97.9716,14.0881,3.904345,0.1277562,0.58675103,85.8258,02/26.0/2026,2000,g 17.0,2.0
# From MPC191612
213P/VanNess,e,10.6585,310.3409,7.6695,3.363225,0.1597976,0.41433634,132.2764,02/26.0/2026,2000,g 10.5,4.0
# From MPEC 2025-GB9
213P-B/Van Ness,e,10.6575,310.3386,7.6843,3.363012,0.1598127,0.41422811,132.3090,02/26.0/2026,2000,g 17.0,4.0
# From MPC 76570
213P-C/Van Ness,e,10.4088,3.6935,313.8806,3.357688,0.1601930,0.41174325,133.4721,02/26.0/2026,2000,g 17.5,4.0
# From MPC 76571
213P-D/Van Ness,e,10.2589,312.6950,4.1428,3.408406,0.1566308,0.37502761,359.9537,06/18.0/2011,2000,g 17.5,4.0
# From MPC191612
214P/LINEAR,e,15.1955,348.2252,190.1105,3.615718,0.1433548,0.48658467,178.9272,02/26.0/2026,2000,g 13.0,4.0
# From MPC191612
215P/NEAT,e,10.5757,56.6825,262.1307,4.337135,0.1091188,0.16483977,250.7075,02/26.0/2026,2000,g 11.0,4.0
# From MPC191612
216P/LINEAR,e,9.0624,359.7635,151.7994,3.860749,0.1299262,0.44915368,101.4522,02/26.0/2026,2000,g 13.0,4.0
# From MPC191613
217P/LINEAR,e,12.8695,125.3678,247.0256,3.947138,0.1256842,0.68946764,34.8143,02/26.0/2026,2000,g 12.0,4.0
# From MPC191613
218P/LINEAR,e,2.7267,174.7143,61.4149,3.059798,0.1841472,0.63089909,358.8384,02/26.0/2026,2000,g 16.0,4.0
# From MPC191613
219P/LINEAR,e,11.4230,230.2080,108.7929,3.661277,0.1406874,0.35846008,104.0047,02/26.0/2026,2000,g 11.0,4.0
# From MPC191613
220P/McNaught,e,8.1206,150.0844,180.5681,3.120829,0.1787719,0.50036407,340.6695,02/26.0/2026,2000,g 15.0,4.0
# From MPC191613
221P/LINEAR,e,10.3343,222.0372,46.5091,3.380755,0.1585563,0.52299139,238.4913,02/26.0/2026,2000,g 14.5,4.0
# From MPC191613
222P/LINEAR,e,5.1002,6.7204,346.2807,2.895244,0.2000674,0.71496002,130.8765,02/26.0/2026,2000,g 20.0,4.0
# From MPC191613
223P/Skiff,e,27.0066,346.6892,37.9905,4.158239,0.1162358,0.41608247,300.2687,02/26.0/2026,2000,g 12.0,4.0
# From MPC191613
224P/LINEAR-NEAT,e,13.2976,40.0372,16.8358,3.447899,0.1539473,0.40529209,191.6614,02/26.0/2026,2000,g 15.5,4.0
# From MPC191613
225P/LINEAR,e,21.3559,14.2151,3.9028,3.647624,0.1414781,0.63794225,132.0553,02/26.0/2026,2000,g 18.0,4.0
# From MPC191613
226P/Pigott-LINEAR-Kowalski,e,44.0417,54.0198,341.0403,3.765613,0.1348810,0.52863207,106.8385,02/26.0/2026,2000,g 12.5,4.0
# From MPC191614
227P/Catalina-LINEAR,e,7.5064,36.7853,105.6206,3.438022,0.1546112,0.52781467,111.2497,02/26.0/2026,2000,g 16.5,2.0
# From MPC191614
228P/LINEAR,e,7.9175,30.9493,114.8998,4.160575,0.1161379,0.17773309,252.8895,02/26.0/2026,2000,g 14.5,2.0
# From MPC191614
229P/Gibbs,e,26.1048,157.8365,224.3445,3.928164,0.1265959,0.37863351,45.1781,02/26.0/2026,2000,g 13.0,4.0
# From MPC191614
230P/LINEAR,e,15.4730,106.9238,313.5933,3.455447,0.1534432,0.54523669,220.8456,02/26.0/2026,2000,g 13.0,4.0
# From MPC191614
231P/LINEAR-NEAT,e,12.2768,132.7420,43.3551,4.068571,0.1200995,0.23996497,297.2000,02/26.0/2026,2000,g 14.5,2.0
# From MPC191614
232P/Hill,e,14.6431,55.9916,53.3718,4.468647,0.1043374,0.33623612,262.1579,02/26.0/2026,2000,g 11.5,4.0
# From MPC191614
233P/LaSagra,e,11.2893,74.9176,26.9774,3.027787,0.1870752,0.41318462,9.1516,02/26.0/2026,2000,g 15.0,4.0
# From MPC191614
234P/LINEAR,e,11.5331,179.5539,357.4844,3.799185,0.1330970,0.25748945,65.2385,02/26.0/2026,2000,g 12.0,4.0
# From MPC191614
235P/LINEAR,e,9.8131,200.1703,352.2010,3.445693,0.1540953,0.42597957,10.0649,02/26.0/2026,2000,g 12.0,4.0
# From MPC191614
236P/LINEAR,e,16.3363,245.5130,119.5106,3.730385,0.1367961,0.51013436,52.9287,02/26.0/2026,2000,g 14.0,4.0
# From MPC191615
237P/LINEAR,e,13.9938,245.3527,25.5831,3.520070,0.1492372,0.43134992,152.2050,02/26.0/2026,2000,g 14.5,2.0
# From MPC191615
238P/Read,e,1.2635,51.6512,324.2386,3.168326,0.1747669,0.25031916,238.1452,02/26.0/2026,2000,g 14.5,4.0
# From MPC191615
239P/LINEAR,e,11.3049,255.9171,220.4276,4.462564,0.1045508,0.63162494,271.8964,02/26.0/2026,2000,g 17.5,2.0
# From MPC191615
240P/NEAT,e,23.5350,74.9114,352.0762,3.862404,0.1298427,0.45069334,8.8361,02/26.0/2026,2000,g 11.0,4.0
# From MPEC 2026-A90
240P-B/NEAT,e,23.5335,74.9119,352.0649,3.861917,0.1298673,0.45062398,8.8352,02/26.0/2026,2000,g 15.5,4.0
# From MPC191615
241P/LINEAR,e,21.0945,305.3614,111.6913,4.929123,0.0900637,0.60979827,150.9504,02/26.0/2026,2000,g 13.5,4.0
# From MPC191615
242P/Spahr,e,32.4375,180.1525,245.0844,5.537614,0.0756345,0.28271497,32.4831,02/26.0/2026,2000,g  8.0,4.0
# From MPC191615
243P/NEAT,e,7.6444,87.5747,283.7912,3.825368,0.1317329,0.36006382,0.0523,02/26.0/2026,2000,g 12.5,4.0
# From MPC191615
244P/Scotti,e,2.2570,353.9987,93.6382,4.906672,0.0906825,0.19964827,108.2099,02/26.0/2026,2000,g  9.0,4.0
# From MPC191615
245P/WISE,e,21.1711,316.6658,316.6991,4.054236,0.1207371,0.45596909,356.0000,02/26.0/2026,2000,g 14.0,4.0
# From MPC191616
246P/NEAT,e,17.2091,73.9383,184.8457,4.333870,0.1092421,0.21058430,213.3515,02/26.0/2026,2000,g 10.5,4.0
# From MPC191616
247P/LINEAR,e,13.6594,53.9965,47.5214,3.962447,0.1249565,0.62559629,329.7640,02/26.0/2026,2000,g 16.5,2.0
# From MPC191616
248P/Gibbs,e,6.3506,207.7701,210.0133,5.991373,0.0672070,0.63988462,11.0257,02/26.0/2026,2000,g 14.0,4.0
# From MPC191616
249P/LINEAR,e,8.3360,238.7458,66.1386,2.771874,0.2135718,0.81930279,83.1087,02/26.0/2026,2000,g 15.5,4.0
# From MPC191616
250P/Larson,e,13.1518,73.3002,45.7078,3.775561,0.1343482,0.39811672,38.3279,02/26.0/2026,2000,g 14.5,4.0
# From MPC191616
251P/LINEAR,e,23.3911,219.3366,31.1655,3.510979,0.1498172,0.50416801,111.4617,02/26.0/2026,2000,g 16.5,2.0
# From MPC191616
252P/LINEAR,e,10.4207,190.9072,343.3687,3.051792,0.1848722,0.67118492,312.8989,02/26.0/2026,2000,g 17.5,4.0
# From MPC191616
253P/PANSTARRS,e,4.9527,146.7896,230.7217,3.462355,0.1529843,0.41588775,75.4264,02/26.0/2026,2000,g 14.5,4.0
# From MPC191616
254P/McNaught,e,32.5358,129.1747,219.6821,4.620894,0.0992236,0.31825285,196.2578,02/26.0/2026,2000,g 11.0,4.0
# From MPC191616
255P/Levy,e,13.4261,275.6455,186.0394,2.941806,0.1953363,0.71202561,247.4655,02/26.0/2026,2000,g 20.0,4.0
# From MPC191617
256P/LINEAR,e,27.6224,81.3099,124.0408,4.633739,0.0988113,0.41827771,106.9047,02/26.0/2026,2000,g 14.0,2.0
# From MPC191617
257P/Catalina,e,20.2128,207.7330,117.6845,3.768993,0.1346995,0.42868214,269.1314,02/26.0/2026,2000,g 11.5,4.0
# From MPC191617
258P/PANSTARRS,e,6.7511,126.2355,25.6779,4.387240,0.1072549,0.20989554,222.7340,02/26.0/2026,2000,g 13.0,4.0
# From MPC191617
259P/Garradd,e,15.8961,51.4360,257.3825,2.729907,0.2185155,0.33876824,323.5132,02/26.0/2026,2000,g 15.5,4.0
# From MPC191617
260P/McNaught,e,15.0390,349.2728,18.5145,3.623548,0.1428904,0.60869049,337.1363,02/26.0/2026,2000,g 13.5,4.0
# From MPC191617
261P/Larson,e,6.0734,291.0500,67.3676,3.488494,0.1512680,0.42261619,9.1647,02/26.0/2026,2000,g 14.0,4.0
# From MPC191617
262P/McNaught-Russell,e,29.2477,217.8544,171.0931,6.869910,0.0547366,0.81565266,263.9998,02/26.0/2026,2000,g 13.5,4.0
# From MPC191617
263P/Gibbs,e,11.5264,105.5023,35.0339,3.040465,0.1859062,0.59424465,208.5358,02/26.0/2026,2000,g 18.0,4.0
# From MPC191617
264P/Larsen,e,25.5391,218.9578,341.4303,4.039037,0.1214192,0.33708443,312.6542,02/26.0/2026,2000,g 13.0,4.0
# From MPC191617
265P/LINEAR,e,14.3306,342.8726,33.6064,4.261811,0.1120245,0.64635557,206.5713,02/26.0/2026,2000,g 14.5,4.0
# From MPC191618
266P/Christensen,e,3.4285,4.9830,97.8218,3.527715,0.1487524,0.34067366,317.6202,02/26.0/2026,2000,g 12.5,4.0
# From MPC191618
267P/LONEOS,e,6.1404,228.3607,114.2753,3.204457,0.1718195,0.61583919,115.4202,02/26.0/2026,2000,g 19.5,4.0
# From MPC191618
268P/Bernardi,e,15.6613,125.6288,0.0525,4.592703,0.1001386,0.47455697,43.5034,02/26.0/2026,2000,g 14.0,4.0
# From MPC191618
269P/Jedicke,e,7.0825,241.7451,225.7962,7.056614,0.0525787,0.43370149,218.4086,02/26.0/2026,2000,g 10.0,4.0
# From MPC191618
270P/Gehrels,e,2.9246,223.0236,209.9685,6.647260,0.0575096,0.47010530,266.0708,02/26.0/2026,2000,g  8.0,4.0
# From MPC191618
271P/vanHouten-Lemmon,e,6.8632,9.2162,36.6941,7.033111,0.0528424,0.39552163,242.8398,02/26.0/2026,2000,g 11.0,4.0
# From MPC191618
272P/NEAT,e,18.0834,109.4391,27.9058,4.462101,0.1045671,0.45567636,137.9300,02/26.0/2026,2000,g 16.0,2.0
# From MPC191618
273P/Pons-Gambart,e,136.1900,320.3438,20.0918,31.88702,0.0054737,0.97476137,0.0000,12/22.3082/2012,2000,g 11.5,4.0
# From MPC191618
274P/Tombaugh-Tenagra,e,15.8185,81.3145,38.5223,4.378730,0.1075677,0.44033398,152.5717,02/26.0/2026,2000,g 13.0,4.0
# From MPC191618
275P/Hermann,e,21.2490,348.7177,173.8347,5.801659,0.0705303,0.71400453,342.7969,02/26.0/2026,2000,g 15.0,4.0
# From MPC191619
276P/Vorobjov,e,14.7254,210.8528,199.9141,5.389099,0.0787825,0.27665193,34.7001,02/26.0/2026,2000,g 11.5,4.0
# From MPC191619
277P/LINEAR,e,16.7928,276.2598,152.4530,3.853512,0.1302924,0.50626686,245.1893,02/26.0/2026,2000,g 14.0,4.0
# From MPC191619
278P/McNaught,e,6.6458,10.6760,243.3310,3.614074,0.1434526,0.45478546,278.7458,02/26.0/2026,2000,g 14.0,4.0
# From MPC191619
279P/LaSagra,e,5.0551,346.0919,5.5639,3.566378,0.1463400,0.39974942,152.8420,02/26.0/2026,2000,g 14.0,4.0
# From MPC191619
280P/Larsen,e,11.7754,131.3772,104.5817,4.522664,0.1024737,0.41704206,95.9767,02/26.0/2026,2000,g 12.5,4.0
# From MPC191619
281P/MOSS,e,4.7174,87.1682,27.1559,4.888962,0.0911757,0.17390262,101.8190,02/26.0/2026,2000,g 11.0,4.0
# From MPC191619
283P/Spacewatch,e,14.4714,161.1278,22.1531,4.130395,0.1174132,0.48545734,191.4607,02/26.0/2026,2000,g 16.0,2.0
# From MPC191619
284P/McNaught,e,11.8515,144.2589,202.4346,3.679753,0.1396292,0.37410831,227.5473,02/26.0/2026,2000,g 13.0,4.0
# From MPC191619
